{
    "links": {
        "self": "http://www.neowsapp.com/rest/v1/neo/3362876?api_key=iIulBulltgU6a56xZRHN4H3l9WmuAYTsLGpBGhQ2"
    },
    "id": "3362876",
    "neo_reference_id": "3362876",
    "name": "(2006 WH130)",
    "designation": "2006 WH130",
    "nasa_jpl_url": "http://ssd.jpl.nasa.gov/sbdb.cgi?sstr=3362876",
    "absolute_magnitude_h": 23.8,
    "estimated_diameter": {
        "kilometers": {
            "estimated_diameter_min": 0.046190746,
            "estimated_diameter_max": 0.1032856481
        },
        "meters": {
            "estimated_diameter_min": 46.1907460282,
            "estimated_diameter_max": 103.2856480504
        },
        "miles": {
            "estimated_diameter_min": 0.0287015901,
            "estimated_diameter_max": 0.0641787064
        },
        "feet": {
            "estimated_diameter_min": 151.544447199,
            "estimated_diameter_max": 338.8636855496
        }
    },
    "is_potentially_hazardous_asteroid": false,
    "close_approach_data": [
        {
            "close_approach_date": "2003-12-01",
            "close_approach_date_full": "2003-Dec-01 02:23",
            "epoch_date_close_approach": 1070245380000,
            "relative_velocity": {
                "kilometers_per_second": "9.4741164173",
                "kilometers_per_hour": "34106.8191024129",
                "miles_per_hour": "21192.6510139409"
            },
            "miss_distance": {
                "astronomical": "0.1786770245",
                "lunar": "69.5053625305",
                "kilometers": "26729702.283137815",
                "miles": "16609066.826079247"
            },
            "orbiting_body": "Earth"
        },
        {
            "close_approach_date": "2006-12-01",
            "close_approach_date_full": "2006-Dec-01 10:31",
            "epoch_date_close_approach": 1164969060000,
            "relative_velocity": {
                "kilometers_per_second": "9.137141237",
                "kilometers_per_hour": "32893.7084531436",
                "miles_per_hour": "20438.8712330103"
            },
            "miss_distance": {
                "astronomical": "0.0936043371",
                "lunar": "36.4120871319",
                "kilometers": "14003009.452921977",
                "miles": "8701066.6002262026"
            },
            "orbiting_body": "Earth"
        },
        {
            "close_approach_date": "2009-11-30",
            "close_approach_date_full": "2009-Nov-30 19:18",
            "epoch_date_close_approach": 1259608680000,
            "relative_velocity": {
                "kilometers_per_second": "9.7936132247",
                "kilometers_per_hour": "35257.0076089222",
                "miles_per_hour": "21907.3334223328"
            },
            "miss_distance": {
                "astronomical": "0.1323337197",
                "lunar": "51.4778169633",
                "kilometers": "19796842.596297039",
                "miles": "12301187.5756915782"
            },
            "orbiting_body": "Earth"
        },
        {
            "close_approach_date": "2012-11-29",
            "close_approach_date_full": "2012-Nov-29 12:53",
            "epoch_date_close_approach": 1354193580000,
            "relative_velocity": {
                "kilometers_per_second": "11.4590832412",
                "kilometers_per_hour": "41252.6996683315",
                "miles_per_hour": "25632.8233022474"
            },
            "miss_distance": {
                "astronomical": "0.245924917",
                "lunar": "95.664792713",
                "kilometers": "36789843.76312679",
                "miles": "22860148.875218102"
            },
            "orbiting_body": "Earth"
        },
        {
            "close_approach_date": "2015-11-28",
            "close_approach_date_full": "2015-Nov-28 22:17",
            "epoch_date_close_approach": 1448749020000,
            "relative_velocity": {
                "kilometers_per_second": "13.853666104",
                "kilometers_per_hour": "49873.1979744169",
                "miles_per_hour": "30989.2657080481"
            },
            "miss_distance": {
                "astronomical": "0.3754251566",
                "lunar": "146.0403859174",
                "kilometers": "56162803.771776442",
                "miles": "34897948.0244292196"
            },
            "orbiting_body": "Earth"
        }
    ],
    "orbital_data": {
        "orbit_id": "10",
        "orbit_determination_date": "2017-04-06 09:07:27",
        "first_observation_date": "2006-11-28",
        "last_observation_date": "2006-12-16",
        "data_arc_in_days": 18,
        "observations_used": 23,
        "orbit_uncertainty": "8",
        "minimum_orbit_intersection": ".0897482",
        "jupiter_tisserand_invariant": "4.930",
        "epoch_osculation": "2454071.5",
        "eccentricity": ".1809872878226184",
        "semi_major_axis": "1.304540232854003",
        "inclination": "17.05481944294748",
        "ascending_node_longitude": "66.99227120921887",
        "orbital_period": "544.2327132560091",
        "perihelion_distance": "1.06843503425427",
        "perihelion_argument": "18.45353060096986",
        "aphelion_distance": "1.540645431453736",
        "perihelion_time": "2454089.363673874484",
        "mean_anomaly": "348.1835059926118",
        "mean_motion": ".6614817360871408",
        "equinox": "J2000",
        "orbit_class": {
            "orbit_class_type": "AMO",
            "orbit_class_description": "Near-Earth asteroid orbits similar to that of 1221 Amor",
            "orbit_class_range": "1.017 AU < q (perihelion) < 1.3 AU"
        }
    },
    "is_sentry_object": false
}